#aV2012  1 16  0  0   .00000000      96 DD+AD WGS84 FIT  NGA
## 1671  86400.00000000   900.00000000 55942  .0000000000000
+   31     1  2  3  4  5  6  7  8  9 10 11 12 13 14 15 16 17
+         18 19 20 21 22 23 25 26 27 28 29 30 31 32  0  0  0
+          0  0  0  0  0  0  0  0  0  0  0  0  0  0  0  0  0
+          0  0  0  0  0  0  0  0  0  0  0  0  0  0  0  0  0
+          0  0  0  0  0  0  0  0  0  0  0  0  0  0  0  0  0
++         0  0  0  0  0  0  0  0  0  0  0  0  0  0  0  0  0
++         0  0  0  0  0  0  0  0  0  0  0  0  0  0  0  0  0
++         0  0  0  0  0  0  0  0  0  0  0  0  0  0  0  0  0
++         0  0  0  0  0  0  0  0  0  0  0  0  0  0  0  0  0
++         0  0  0  0  0  0  0  0  0  0  0  0  0  0  0  0  0
%c cc cc ccc ccc cccc cccc cccc cccc ccccc ccccc ccccc ccccc
%c cc cc ccc ccc cccc cccc cccc cccc ccccc ccccc ccccc ccccc
%f  0.0000000  0.000000000  0.00000000000  0.000000000000000
%f  0.0000000  0.000000000  0.00000000000  0.000000000000000
%i    0    0    0    0      0      0      0      0         0
%i    0    0    0    0      0      0      0      0         0
/*      NGA, ST. LOUIS,MO.                                  
/*   EPHEMERIS COMPUTED FROM  3 DAYS OF DATA                
/* CCCCCCCCCCCCCCCCCCCCCCCCCCCCCCCCCCCCCCCCCCCCCCCCCCCCCCCCC
/* CCCCCCCCCCCCCCCCCCCCCCCCCCCCCCCCCCCCCCCCCCCCCCCCCCCCCCCCC
*  2012  1 16 11 30   .00000000                                                 
P  1  15510.021948  -1081.403519  21518.441934    182.446690                    
V  1   8186.935610  26114.709782  -4571.700853       .126679                    
P  2 -13773.496124 -21410.685630  -8331.092427    374.936355                    
V  2   -718.693513 -10949.369867  28510.646212       .016363                    
P  3  20598.247450  11386.161534 -13035.910184    822.762842                    
V  3 -15956.332918   1403.479432 -24578.445911       .049790                    
P  4  -6484.297760 -25450.419066   2251.980320     65.061053                    
V  4   4631.036668   1850.535380  31267.934790       .113633                    
P  5 -12690.355489  -8898.486031 -21597.823735   -271.222579                    
V  5  18222.084979 -20455.661360  -2157.697841      -.046249                    
P  6  17135.381208  13787.324310 -14946.781614     24.703538                    
V  6 -19308.397061   -590.631120 -22211.697489       .027911                    
P  7   8881.662791 -15716.029114 -19373.571700     50.330288                    
V  7   8467.359067  23226.087089 -15177.097594       .025894                    
P  8   2236.791408 -23593.417358 -11316.059108       .405756                    
V  8   4981.992681  13866.313855 -28327.717636       .000866                    
P  9 -15671.180502  -3646.753440  20579.843714    132.180917                    
V  9  -8013.029410 -26151.791531 -10487.611358       .024865                    
P 10   4402.742721 -21033.438000 -15589.733342    -25.784642                    
V 10  15198.332819 -12553.936101  21961.403362      -.013155                    
P 11  19651.252839   4808.790178  16986.446156   -223.372917                    
V 11   9997.647814  20295.628016 -16612.920017      -.036009                    
P 12 -20652.748685   7219.685930  14938.339435     46.901898                    
V 12  11742.771318 -15030.433121  23686.426816       .022126                    
P 13  17752.621912  -7311.912792 -18528.923978    230.414300                    
V 13  21818.011634   7791.730385  17884.779807      -.021077                    
P 14   2607.729821  15681.739324  21478.755010    190.235825                    
V 14 -25901.030100  -6795.652914   8038.048420       .014927                    
P 15 -26355.681424  -3457.535142   2216.297358    -94.538596                    
V 15  -2174.054952  -3527.109534 -31154.612661       .006753                    
P 16  11474.673890   9426.124657 -22011.511032   -219.075825                    
V 16 -19555.839696  19936.554475  -1361.952751      -.017566                    
P 17    213.013886 -15535.891967  21720.958229    154.466093                    
V 17  26422.321371   6358.075758   4082.191135      -.023004                    
P 18 -16635.561565  20366.680758   2182.551260    177.015432                    
V 18  -4611.231126   -982.891700 -31140.055403       .018229                    
P 19  25584.203752   7869.115858      3.078066   -226.130120                    
V 19   -699.228357   2428.132485 -31491.234564      -.038651                    
P 20  20796.892948  -9870.135673  13026.092152     60.170387                    
V 20  -8436.976626  14962.661125  24578.407543       .006621                    
P 21  -6463.626573  19425.350710 -16143.140879   -197.977556                    
V 21  -9287.162391 -19798.549990 -20153.115911      -.025633                    
P 22  -5518.154992  21697.931648  14378.758511    142.914658                    
V 22 -14436.206868  11285.720588 -22957.509866       .001020                    
P 23  24645.600745  -1673.152889 -10200.091965    241.447935                    
V 23  12062.700667   4998.998133  27895.545875      -.033200                    
P 25 -19836.336122  16765.366558   5437.906282     31.106246                    
V 25   2663.381604  -6905.273236  30912.502213       .002203                    
P 26 -21249.213621 -13316.363925  -9928.917892   -301.135217                    
V 26  11486.830230   2019.541347 -28707.965827      -.142323                    
P 27 -16943.515878 -10964.731814  18129.182513    346.845074                    
V 27  -6650.107444 -20500.990281 -18877.964497       .038969                    
P 28   8905.607186 -21513.089730  13099.274030    103.264562                    
V 28  12464.161280  -9904.646709 -26061.524805       .037180                    
P 29 -18870.596692   7384.208440 -17084.641699    275.658455                    
V 29 -20693.844129  -7166.701203  19721.376229       .036482                    
P 30   4331.377089  17575.175758 -19787.037702    -11.053430                    
V 30 -15398.805388  18933.769918  13700.908423      -.121091                    
P 31   7213.336670  25420.583463    813.471449    196.246633                    
V 31  -2512.585982    -56.351678  32320.912543       .047906                    
P 32  19293.889129   -173.315417  18278.559272   -393.451732                    
V 32 -15546.185158  16974.089750  17241.868258      -.056399                    
EOF
